CELESTIS-17 & SHERPA-FX1
1 47486U 21006CB  26068.64311433  .00007207  00000+0  24301-3 0  9993
2 47486  97.2397 112.1052 0006630 178.1385 181.9882 15.30994801284065
STARLINK-35410          
1 66024U 25232V   26068.38372192  .00015825  00000+0  54528-3 0  9996
2 66024  53.1578 104.9751 0001238  87.7374 272.3769 15.30201096 23396
